0 ARIANE 42P+ DEB
1 34184U 92072Q   13283.30788981  .00005945  00000-0  14577-2 0  6964
2 34184 007.0991 015.3249 6696869 161.0568 246.4522 03.04351579128529
0 ARIANE 42P+ DEB
1 34184U 92072Q   13285.60020058  .00005775  00000-0  14577-2 0  6975
2 34184 007.1003 013.9886 6696658 163.7069 238.1609 03.04379565128592
0 ARIANE 42P+ DEB
1 34184U 92072Q   13287.23720145  .00005776  00000-0  14958-2 0  6985
2 34184 007.1020 013.0244 6696020 165.6183 231.9849 03.04400529128649
0 ARIANE 42P+ DEB
1 34184U 92072Q   13289.52835726  .00005873  00000-0  15098-2 0  6996
2 34184 007.1036 011.6861 6695659 168.2759 222.8392 03.04429313128712
0 ARIANE 42P+ DEB
1 34184U 92072Q   13292.48314351  .00005422  00000-0  14945-2 0  7004
2 34184 007.1122 009.8929 6692640 171.7905 221.4039 03.04485008128807
0 ARIANE 42P+ DEB
1 34184U 92072Q   13293.45453799  .00006276  00000-0  15862-2 0  7010
2 34184 007.1078 009.3998 6694791 172.8118 206.2250 03.04484464128839
0 ARIANE 42P+ DEB
1 34184U 92072Q   13294.43630975  .00006330  00000-0  16234-2 0  7028
2 34184 007.1088 008.8318 6694250 173.9484 202.4156 03.04497998128860
